BEIDOU-2 IGSO-1 (C06)   
1 36828U 10036A   24217.80972402 -.00000144  00000+0  00000+0 0  9993
2 36828  54.2578 169.1257 0041523 206.8414 337.2273  1.00268433 51371
BEIDOU-2 G4 (C04)       
1 37210U 10057A   24218.89563250 -.00000119  00000+0  00000+0 0  9991
2 37210   1.9618  69.3724 0005300 153.4598 214.5454  1.00273602 50465
BEIDOU-2 IGSO-2 (C07)   
1 37256U 10068A   24218.05961507 -.00000173  00000+0  00000+0 0  9998
2 37256  48.7869 280.2238 0040245 215.4315 307.0184  1.00288357 49963
BEIDOU-2 IGSO-3 (C08)   
1 37384U 11013A   24219.32613640 -.00000156  00000+0  00000+0 0  9995
2 37384  61.4319  46.6253 0031429 173.1601 318.0941  1.00296542 48855
BEIDOU-2 IGSO-4 (C09)   
1 37763U 11038A   24216.63849251 -.00000079  00000+0  00000+0 0  9997
2 37763  54.5634 171.7534 0126455 229.0521 232.9431  1.00250701 47794
BEIDOU-2 IGSO-5 (C10)   
1 37948U 11073A   24219.58214066 -.00000161  00000+0  00000+0 0  9990
2 37948  48.9180 279.8969 0102713 220.8821 120.2458  1.00282769 46580
BEIDOU-2 G5 (C05)       
1 38091U 12008A   24218.88808289  .00000050  00000+0  00000+0 0  9993
2 38091   2.1939  71.1821 0003690 240.4538  21.6545  1.00274736 45654
BEIDOU-2 M3 (C11)       
1 38250U 12018A   24217.79574990 -.00000104  00000+0  00000+0 0  9990
2 38250  56.3046 327.7260 0022553 260.3865  99.3785  1.86231361 83258
BEIDOU-2 M4 (C12)       
1 38251U 12018B   24218.26270824 -.00000102  00000+0  00000+0 0  9991
2 38251  56.2104 326.9783 0013501 259.8290 100.0414  1.86232056 83264
BEIDOU-2 M6 (C14)       
1 38775U 12050B   24219.04624754 -.00000026  00000+0  00000+0 0  9995
2 38775  55.9513  85.4960 0012389 346.6232  13.4308  1.86231271 80997
BEIDOU-2 G6 (C02)       
1 38953U 12059A   24219.11750069 -.00000182  00000+0  00000+0 0  9992
2 38953   2.6836  80.1409 0007926 318.2687  43.0681  1.00272615 43234
BEIDOU-3S IGSO-1S (C31) 
1 40549U 15019A   24219.57325918 -.00000165  00000+0  00000+0 0  9997
2 40549  50.4779 303.5982 0036292 194.8747 117.5301  1.00295153 34256
BEIDOU-3S M2S (C58)     
1 40748U 15037A   24218.99942530 -.00000100  00000+0  00000+0 0  9997
2 40748  55.4403 325.3433 0010557 245.0672 114.8512  1.86233417 61456
BEIDOU-3S M1S (C57)     
1 40749U 15037B   24218.73418813 -.00000100  00000+0  00000+0 0  9992
2 40749  55.4432 325.3386 0002476 334.3690  25.6456  1.86227698 61448
BEIDOU-3S IGSO-2S (C56) 
1 40938U 15053A   24212.61646778 -.00000088  00000+0  00000+0 0  9999
2 40938  50.2884 266.8965 0053960 191.6022 164.9933  1.00252887 32462
BEIDOU-2 IGSO-6 (C13)   
1 41434U 16021A   24218.97686657 -.00000130  00000+0  00000+0 0  9990
2 41434  59.2512  44.8428 0048587 221.2774 134.5881  1.00262291 30656
BEIDOU-2 G7 (C03)       
1 41586U 16037A   24219.59045323 -.00000359  00000+0  00000+0 0  9996
2 41586   1.4992  64.9924 0007555 358.0818 215.6533  1.00273576 29962
BEIDOU-3 M1 (C19)       
1 43001U 17069A   24218.81222348 -.00000026  00000+0  00000+0 0  9995
2 43001  56.1012  85.6068 0008581 312.6043  47.4100  1.86231671 45931
BEIDOU-3 M2 (C20)       
1 43002U 17069B   24218.74958936 -.00000025  00000+0  00000+0 0  9996
2 43002  56.1004  85.6450 0007230 342.5075  17.5543  1.86231140 45924
BEIDOU-3 M7 (C27)       
1 43107U 18003A   24218.49815085 -.00000102  00000+0  00000+0 0  9996
2 43107  54.8987 325.9296 0003776  86.4309 273.6374  1.86232648 44670
BEIDOU-3 M8 (C28)       
1 43108U 18003B   24218.43899500 -.00000102  00000+0  00000+0 0  9995
2 43108  54.8919 325.9169 0003743 246.3563 113.6295  1.86231084 44687
BEIDOU-3 M4 (C22)       
1 43207U 18018A   24218.34336585 -.00000026  00000+0  00000+0 0  9995
2 43207  56.0596  85.7096 0006061  16.6755 343.4307  1.86231582 44061
BEIDOU-3 M3 (C21)       
1 43208U 18018B   24218.40998631 -.00000026  00000+0  00000+0 0  9999
2 43208  56.0592  85.7119 0006787 330.2167  29.8309  1.86231474 44068
BEIDOU-3 M9 (C29)       
1 43245U 18029A   24218.09373265 -.00000100  00000+0  00000+0 0  9990
2 43245  54.7808 323.6462 0001285 203.6693 156.3521  1.86232928 43217
BEIDOU-3 M10 (C30)      
1 43246U 18029B   24218.56028121 -.00000099  00000+0  00000+0 0  9998
2 43246  54.7779 323.6582 0002667  11.4780 348.5570  1.86233097 43201
BEIDOU-2 IGSO-7 (C16)   
1 43539U 18057A   24217.81253581 -.00000146  00000+0  00000+0 0  9994
2 43539  55.1516 168.9653 0079061 234.4754 313.0918  1.00297253 22300
BEIDOU-3 M5 (C23)       
1 43581U 18062A   24218.78390449  .00000024  00000+0  00000+0 0  9993
2 43581  54.1303 205.4445 0005551 280.5073  79.4069  1.86228875 40965
BEIDOU-3 M6 (C24)       
1 43582U 18062B   24218.64953181  .00000024  00000+0  00000+0 0  9997
2 43582  54.1300 205.4386 0004778 356.7765   3.1974  1.86229848 40961
BEIDOU-3 M12 (C26)      
1 43602U 18067A   24218.58236429  .00000023  00000+0  00000+0 0  9996
2 43602  54.2209 204.1268 0006978  17.8906 342.1089  1.86231603 40442
BEIDOU-3 M11 (C25)      
1 43603U 18067B   24218.17938254  .00000021  00000+0  00000+0 0  9995
2 43603  54.2180 204.1054 0003937 359.6071   0.3686  1.86231552 40467
BEIDOU-3 M13 (C32)      
1 43622U 18072A   24219.21493751 -.00000026  00000+0  00000+0 0  9992
2 43622  56.0316  85.2105 0005267 314.0351  46.0084  1.86231677 39991
BEIDOU-3 M14 (C33)      
1 43623U 18072B   24219.08039689 -.00000026  00000+0  00000+0 0  9994
2 43623  56.0333  85.2083 0004211 355.3759   4.7071  1.86231623 39981
BEIDOU-3 M16 (C35)      
1 43647U 18078A   24219.24275413 -.00000099  00000+0  00000+0 0  9991
2 43647  54.6763 323.7013 0006087  20.8088 339.2471  1.86232342 39500
BEIDOU-3 M15 (C34)      
1 43648U 18078B   24219.37190281 -.00000098  00000+0  00000+0 0  9994
2 43648  54.6721 323.6995 0002981  37.0151 323.0371  1.86232460 39526
BEIDOU-3 G1 (C59)       
1 43683U 18085A   24218.98556883 -.00000286  00000+0  00000+0 0  9990
2 43683   2.3109 107.7396 0003504   6.8165 335.2606  1.00268584 21239
BEIDOU-3 M17 (C36)      
1 43706U 18093A   24218.44885046  .00000023  00000+0  00000+0 0  9990
2 43706  54.2131 205.3979 0010375 282.6467  77.2148  1.86228521 38863
BEIDOU-3 M18 (C37)      
1 43707U 18093B   24219.38769950  .00000029  00000+0  00000+0 0  9996
2 43707  54.2139 205.3578 0008399 307.5152  52.3842  1.86230051 38875
BEIDOU-3 IGSO-1 (C38)   
1 44204U 19023A   24219.51402821 -.00000198  00000+0  00000+0 0  9997
2 44204  57.7181  44.6956 0023082 205.0589   9.8764  1.00286798 19547
BEIDOU-2 G8 (C01)       
1 44231U 19027A   24219.57382567 -.00000252  00000+0  00000+0 0  9992
2 44231   1.5974  74.1385 0002034 177.3231  55.2558  1.00272204 19258
BEIDOU-3 IGSO-2 (C39)   
1 44337U 19035A   24218.63112714 -.00000152  00000+0  00000+0 0  9998
2 44337  55.1839 164.8360 0035040 204.7544 291.1026  1.00282210 18848
BEIDOU-3 M24 (C46)      
1 44542U 19061A   24217.30952219  .00000024  00000+0  00000+0 0  9997
2 44542  54.4411 205.7327 0008186 343.2980  16.6574  1.86229373 33105
BEIDOU-3 M23 (C45)      
1 44543U 19061B   24218.84896529  .00000025  00000+0  00000+0 0  9990
2 44543  54.4392 205.6493 0005772 324.3252 260.2745  1.86229661 33115
BEIDOU-3 IGSO-3 (C40)   
1 44709U 19073A   24218.59705472 -.00000166  00000+0  00000+0 0  9992
2 44709  55.9641 288.2054 0041166 189.2336 170.8095  1.00287730 17630
BEIDOU-3 M22 (C44)      
1 44793U 19078A   24219.30295458 -.00000099  00000+0  00000+0 0  9993
2 44793  54.5242 323.6252 0004909  30.0280 330.0316  1.86232347 31993
BEIDOU-3 M21 (C43)      
1 44794U 19078B   24218.89566983 -.00000099  00000+0  00000+0 0  9991
2 44794  54.4980 323.6144 0002804  25.4579 334.5861  1.86232807 31987
BEIDOU-3 M19 (C41)      
1 44864U 19090A   24219.53863168 -.00000027  00000+0  00000+0 0  9991
2 44864  55.9661  85.3681 0016075 284.3096 339.4398  1.86231962 31575
BEIDOU-3 M20 (C42)      
1 44865U 19090B   24218.93326961 -.00000026  00000+0  00000+0 0  9999
2 44865  55.9675  85.4217 0014021 299.4659   8.1341  1.86231865 31545
BEIDOU-3 G2 (C60)       
1 45344U 20017A   24219.11671750 -.00000147  00000+0  00000+0 0  9997
2 45344   2.3775  31.4862 0002375 154.8540 250.8496  1.00272237 16458
BEIDOU-3 G3 (C61)       
1 45807U 20040A   24219.52552133 -.00000358  00000+0  00000+0 0  9999
2 45807   0.8645  47.9729 0003649   3.7242 203.5501  1.00268000 15264
BEIDOU-3 G4             
1 56564U 23066A   24218.86229796 -.00000118  00000+0  00000+0 0  9998
2 56564   2.0015 288.2599 0006015 216.0844 280.9817  1.00272533  4581
BEIDOU-3 M25            
1 58654U 23207A   24217.36770979 -.00000031  00000+0  00000+0 0  9999
2 58654  55.1481  85.4231 0001268 325.9138  34.1611  1.86232379  4141
BEIDOU-3 M26            
1 58655U 23207B   24218.24066198 -.00000029  00000+0  00000+0 0  9996
2 58655  55.1508  85.3786 0001669 267.5321  92.5339  1.86232101  4144
